[{"OBJECT_NAME":"IONOSFERA-M 3","OBJECT_ID":"2025-155A","EPOCH":"2026-03-09T23:55:45.856992","MEAN_MOTION":14.2146666,"ECCENTRICITY":0.00021277,"INCLINATION":98.5924,"RA_OF_ASC_NODE":33.457,"ARG_OF_PERICENTER":117.7739,"MEAN_ANOMALY":242.3654,"EPHEMERIS_TYPE":0,"CLASSIFICATION_TYPE":"U","NORAD_CAT_ID":64876,"ELEMENT_SET_NO":999,"REV_AT_EPOCH":3231,"BSTAR":7.6669026e-5,"MEAN_MOTION_DOT":1.25e-6,"MEAN_MOTION_DDOT":0},{"OBJECT_NAME":"CZ-6A DEB","OBJECT_ID":"2022-151AQ","EPOCH":"2026-03-09T12:28:43.184064","MEAN_MOTION":14.26636425,"ECCENTRICITY":0.00245511,"INCLINATION":98.7247,"RA_OF_ASC_NODE":88.1714,"ARG_OF_PERICENTER":287.2532,"MEAN_ANOMALY":72.5962,"EPHEMERIS_TYPE":0,"CLASSIFICATION_TYPE":"U","NORAD_CAT_ID":54297,"ELEMENT_SET_NO":999,"REV_AT_EPOCH":17217,"BSTAR":0.0006143005,"MEAN_MOTION_DOT":1.444e-5,"MEAN_MOTION_DDOT":0}]
